STARLINK-30439          
1 57867U 23144D   26067.68040036  .00019357  00000+0  71118-3 0  9990
2 57867  43.0006 290.8518 0001136 244.5416 115.5319 15.27575417137491
TEVEL2-7                
1 63238U 25052AE  26068.66113295  .00019244  00000+0  69668-3 0  9998
2 63238  97.4054 324.3041 0008105 124.6830 235.5175 15.28414096 54803
